NORAD_CAT_ID,OBJECT_NAME,OBJECT_TYPE,EPOCH,MEAN_MOTION,ECCENTRICITY,INCLINATION,RA_OF_ASC_NODE,ARG_OF_PERICENTER,MEAN_ANOMALY,BSTAR,MEAN_MOTION_DOT,MEAN_MOTION_DDOT,TLE_LINE0,TLE_LINE1,TLE_LINE2,SEMIMAJOR_AXIS,PERIOD,APOGEE,PERIGEE,DECAYED
55414.0,STARLINK-5620,PAYLOAD,2024-02-13 13:29:49,14.98331417,0.0002358,70.0018,188.3117,254.203,105.8869,-9.706e-05,-1.251e-05,0.0,0 STARLINK-5620,1 55414U 23014Z   24044.56237791 -.00001251  00000-0 -97060-4 0  9990,2 55414  70.0018 188.3117 0002358 254.2030 105.8869 14.98331417 58450,6950.189,96.107,573.692,570.415,0.0
55414.0,STARLINK-5620,PAYLOAD,2024-02-13 19:54:21,14.98331335,0.0002606,70.0012,187.6378,265.0216,95.0646,-9.5299e-05,-1.23e-05,0.0,0 STARLINK-5620,1 55414U 23014Z   24044.82941819 -.00001230  00000-0 -95299-4 0  9991,2 55414  70.0012 187.6378 0002606 265.0216  95.0646 14.98331335 58493,6950.189,96.107,573.865,570.243,0.0
55414.0,STARLINK-5620,PAYLOAD,2024-02-14 11:55:42,14.98329308,0.0002779,70.0009,185.9538,265.8495,94.2346,6.0635e-05,6.31e-06,0.0,0 STARLINK-5620,1 55414U 23014Z   24045.49701442  .00000631  00000-0  60635-4 0  9999,2 55414  70.0009 185.9538 0002779 265.8495  94.2346 14.98329308 58592,6950.195,96.107,573.991,570.129,0.0
55414.0,STARLINK-5620,PAYLOAD,2024-02-14 15:07:58,14.98329542,0.0002793,70.0008,185.6174,266.1887,93.8953,9.2002e-05,1.005e-05,0.0,0 STARLINK-5620,1 55414U 23014Z   24045.63053347  .00001005  00000-0  92002-4 0  9998,2 55414  70.0008 185.6174 0002793 266.1887  93.8953 14.98329542 58611,6950.194,96.107,574.0,570.118,0.0
55414.0,STARLINK-5620,PAYLOAD,2024-02-14 16:44:06,14.98331794,0.0002772,70.0009,185.4489,265.8556,94.2286,4.7581e-05,4.75e-06,0.0,0 STARLINK-5620,1 55414U 23014Z   24045.69729321  .00000475  00000-0  47581-4 0  9998,2 55414  70.0009 185.4489 0002772 265.8556  94.2286 14.98331794 58622,6950.187,96.107,573.979,570.126,0.0
55414.0,STARLINK-5620,PAYLOAD,2024-02-15 11:57:43,14.98325041,0.0002812,70.001,183.4296,267.764,92.3197,1.0371e-05,3.1e-07,0.0,0 STARLINK-5620,1 55414U 23014Z   24046.49841843  .00000031  00000-0  10371-4 0  9996,2 55414  70.0010 183.4296 0002812 267.7640  92.3197 14.98325041 58749,6950.208,96.107,574.028,570.119,0.0
55414.0,STARLINK-5620,PAYLOAD,2024-02-15 13:33:51,14.98324669,0.0002823,70.001,183.2613,267.7816,92.3019,4.929e-06,-3.4e-07,0.0,0 STARLINK-5620,1 55414U 23014Z   24046.56517899 -.00000034  00000-0  49290-5 0  9992,2 55414  70.0010 183.2613 0002823 267.7816  92.3019 14.98324669 58756,6950.209,96.107,574.036,570.112,0.0
55414.0,STARLINK-5620,PAYLOAD,2024-02-15 18:22:15,14.98325626,0.000284,70.001,182.7566,266.8807,93.2028,1.036e-05,3.1e-07,0.0,0 STARLINK-5620,1 55414U 23014Z   24046.76545853  .00000031  00000-0  10360-4 0  9996,2 55414  70.0010 182.7566 0002840 266.8807  93.2028 14.98325626 58783,6950.206,96.107,574.045,570.098,0.0
55414.0,STARLINK-5620,PAYLOAD,2024-02-16 02:22:55,14.98331723,0.0003161,70.0005,181.9147,269.2149,90.8648,2.2862e-05,1.8e-06,0.0,0 STARLINK-5620,1 55414U 23014Z   24047.09925344  .00000180  00000-0  22862-4 0  9995,2 55414  70.0005 181.9147 0003161 269.2149  90.8648 14.98331723 58838,6950.188,96.107,574.25,569.856,0.0
55414.0,STARLINK-5620,PAYLOAD,2024-02-16 15:11:59,14.98333032,0.0003114,70.0008,180.5684,268.4389,91.6413,2.5916e-05,2.16e-06,0.0,0 STARLINK-5620,1 55414U 23014Z   24047.63333239  .00000216  00000-0  25916-4 0  9994,2 55414  70.0008 180.5684 0003114 268.4389  91.6413 14.98333032 58910,6950.184,96.107,574.213,569.884,0.0
55414.0,STARLINK-5620,PAYLOAD,2024-02-16 18:24:15,14.98337282,0.0002973,70.0009,180.2318,266.9129,93.169,4.8045e-05,4.8e-06,0.0,0 STARLINK-5620,1 55414U 23014Z   24047.76684859  .00000480  00000-0  48045-4 0  9996,2 55414  70.0009 180.2318 0002973 266.9129  93.1690 14.98337282 58936,6950.17,96.107,574.102,569.969,0.0
55414.0,STARLINK-5620,PAYLOAD,2024-02-17 12:01:45,14.98322499,0.0002955,70.0013,178.38,269.1564,90.9257,4.8877e-06,-3.5e-07,0.0,0 STARLINK-5620,1 55414U 23014Z   24048.50121902 -.00000035  00000-0  48877-5 0  9995,2 55414  70.0013 178.3800 0002955 269.1564  90.9257 14.98322499 59044,6950.216,96.107,574.135,570.027,0.0
55414.0,STARLINK-5620,PAYLOAD,2024-02-17 15:14:01,14.98329226,0.0002798,70.0012,178.043,265.0438,95.0401,2.7307e-05,2.33e-06,0.0,0 STARLINK-5620,1 55414U 23014Z   24048.63473419  .00000233  00000-0  27307-4 0  9995,2 55414  70.0012 178.0430 0002798 265.0438  95.0401 14.98329226 59063,6950.195,96.107,574.005,570.116,0.0
55414.0,STARLINK-5620,PAYLOAD,2024-02-17 18:26:17,14.98326516,0.000267,70.0017,177.7066,261.1333,98.9524,2.9084e-05,2.54e-06,0.0,0 STARLINK-5620,1 55414U 23014Z   24048.76825626  .00000254  00000-0  29084-4 0  9997,2 55414  70.0017 177.7066 0002670 261.1333  98.9524 14.98326516 59088,6950.204,96.107,573.924,570.213,0.0
55414.0,STARLINK-5620,PAYLOAD,2024-02-18 12:03:45,14.98329293,0.000292,70.0016,175.8574,266.5408,93.5417,1.7015e-06,-7.3e-07,0.0,0 STARLINK-5620,1 55414U 23014Z   24049.50261497 -.00000073  00000-0  17015-5 0  9992,2 55414  70.0016 175.8574 0002920 266.5408  93.5417 14.98329293 59199,6950.195,96.107,574.09,570.031,0.0
55414.0,STARLINK-5620,PAYLOAD,2024-02-18 15:16:01,14.98332811,0.0002998,70.0014,175.5211,265.991,94.0907,-4.1599e-05,-5.89e-06,0.0,0 STARLINK-5620,1 55414U 23014Z   24049.63613390 -.00000589  00000-0 -41599-4 0  9995,2 55414  70.0014 175.5211 0002998 265.9910  94.0907 14.98332811 59211,6950.184,96.107,574.133,569.966,0.0
55414.0,STARLINK-5620,PAYLOAD,2024-02-18 18:28:18,14.98331531,0.0002906,70.0013,175.184,264.5947,95.4881,1.252e-05,5.6e-07,0.0,0 STARLINK-5620,1 55414U 23014Z   24049.76965308  .00000056  00000-0  12520-4 0  9997,2 55414  70.0013 175.1840 0002906 264.5947  95.4881 14.98331531 59234,6950.188,96.107,574.073,570.033,0.0
55414.0,STARLINK-5620,PAYLOAD,2024-02-19 12:05:47,14.98322624,0.0002805,70.0017,173.3321,268.7289,91.3549,-2.9214e-06,-1.28e-06,0.0,0 STARLINK-5620,1 55414U 23014Z   24050.50402070 -.00000128  00000-0 -29214-5 0  9994,2 55414  70.0017 173.3321 0002805 268.7289  91.3549 14.98322624 59346,6950.216,96.107,574.03,570.131,0.0
55414.0,STARLINK-5620,PAYLOAD,2024-02-19 18:30:19,14.9832401,0.0002748,70.0019,172.659,267.619,92.4655,1.4143e-05,7.6e-07,0.0,0 STARLINK-5620,1 55414U 23014Z   24050.77106040  .00000076  00000-0  14143-4 0  9995,2 55414  70.0019 172.6590 0002748 267.6190  92.4655 14.98324010 59388,6950.211,96.107,573.986,570.166,0.0
55414.0,STARLINK-5620,PAYLOAD,2024-02-20 12:07:47,14.98331843,0.0002779,70.0016,170.8072,267.3027,92.7814,6.4149e-05,6.73e-06,0.0,0 STARLINK-5620,1 55414U 23014Z   24051.50541355  .00000673  00000-0  64149-4 0  9993,2 55414  70.0016 170.8072 0002779 267.3027  92.7814 14.98331843 59494,6950.187,96.107,573.984,570.121,0.0
55414.0,STARLINK-5620,PAYLOAD,2024-02-20 13:43:55,14.98333795,0.0002812,70.0014,170.639,268.2795,91.8042,4.3058e-05,4.21e-06,0.0,0 STARLINK-5620,1 55414U 23014Z   24051.57217282  .00000421  00000-0  43058-4 0  9996,2 55414  70.0014 170.6390 0002812 268.2795  91.8042 14.98333795 59506,6950.181,96.107,574.001,570.092,0.0
55414.0,STARLINK-5620,PAYLOAD,2024-02-20 16:56:11,14.98336618,0.0002771,70.0014,170.3021,270.2953,89.7889,7.4975e-05,8.02e-06,0.0,0 STARLINK-5620,1 55414U 23014Z   24051.70568987  .00000802  00000-0  74975-4 0  9997,2 55414  70.0014 170.3021 0002771 270.2953  89.7889 14.98336618 59521,6950.172,96.107,573.963,570.112,0.0
55414.0,STARLINK-5620,PAYLOAD,2024-02-21 12:09:48,14.98330989,0.0002811,70.0009,168.2813,268.0815,92.0022,6.1626e-05,6.42e-06,0.0,0 STARLINK-5620,1 55414U 23014Z   24052.50681144  .00000642  00000-0  61626-4 0  9998,2 55414  70.0009 168.2813 0002811 268.0815  92.0022 14.98330989 59641,6950.19,96.107,574.009,570.101,0.0
55414.0,STARLINK-5620,PAYLOAD,2024-02-21 13:45:56,14.98332479,0.0002662,70.0009,168.1125,263.3065,96.7791,7.2285e-05,7.7e-06,0.0,0 STARLINK-5620,1 55414U 23014Z   24052.57356988  .00000770  00000-0  72285-4 0  9995,2 55414  70.0009 168.1125 0002662 263.3065  96.7791 14.98332479 59656,6950.185,96.107,573.9,570.2,0.0
55414.0,STARLINK-5620,PAYLOAD,2024-02-21 16:58:12,14.98331258,0.0002574,70.001,167.7759,259.2711,100.8159,6.4488e-05,6.77e-06,0.0,0 STARLINK-5620,1 55414U 23014Z   24052.70709056  .00000677  00000-0  64488-4 0  9990,2 55414  70.0010 167.7759 0002574 259.2711 100.8159 14.98331258 59671,6950.189,96.107,573.843,570.265,0.0
55414.0,STARLINK-5620,PAYLOAD,2024-02-22 12:11:49,14.98326167,0.0002688,70.0015,165.7568,264.474,95.6113,-5.6733e-05,-7.7e-06,0.0,0 STARLINK-5620,1 55414U 23014Z   24053.50821652 -.00000770  00000-0 -56733-4 0  9996,2 55414  70.0015 165.7568 0002688 264.4740  95.6113 14.98326167 59795,6950.205,96.107,573.938,570.202,0.0
55414.0,STARLINK-5620,PAYLOAD,2024-02-22 13:47:57,14.98328669,0.0002982,70.0006,165.5877,270.6267,89.455,-9.9754e-05,-1.283e-05,0.0,0 STARLINK-5620,1 55414U 23014Z   24053.57497666 -.00001283  00000-0 -99754-4 0  9997,2 55414  70.0006 165.5877 0002982 270.6267  89.4550 14.98328669 59803,6950.197,96.107,574.135,569.989,0.0
55414.0,STARLINK-5620,PAYLOAD,2024-02-22 17:00:14,14.98329544,0.0002946,70.0007,165.2511,270.4739,89.6083,-8.2247e-05,-1.074e-05,0.0,0 STARLINK-5620,1 55414U 23014Z   24053.70849569 -.00001074  00000-0 -82247-4 0  9992,2 55414  70.0007 165.2511 0002946 270.4739  89.6083 14.98329544 59826,6950.194,96.107,574.107,570.012,0.0
55414.0,STARLINK-5620,PAYLOAD,2024-02-23 12:13:50,14.98329825,0.0003061,70.0006,163.2316,270.6578,89.423,-2.6678e-05,-4.11e-06,0.0,0 STARLINK-5620,1 55414U 23014Z   24054.50961401 -.00000411  00000-0 -26678-4 0  9991,2 55414  70.0006 163.2316 0003061 270.6578  89.4230 14.98329825 59945,6950.193,96.107,574.186,569.931,0.0
55414.0,STARLINK-5620,PAYLOAD,2024-02-23 13:49:58,14.98331273,0.0002994,70.0006,163.0632,269.995,90.0865,3.9189e-05,3.75e-06,0.0,0 STARLINK-5620,1 55414U 23014Z   24054.57637103  .00000375  00000-0  39189-4 0  9995,2 55414  70.0006 163.0632 0002994 269.9950  90.0865 14.98331273 59956,6950.189,96.107,574.135,569.973,0.0
